import { useEffect } from 'react';
import Head from 'next/head';

import * as satellite from "satellite.js";

import {
  Viewer,
  CesiumTerrainProvider,
  Ion,
  IonResource
} from "cesiumSource/Cesium";

export default function Home() {
  const irridiumDebris = [
    "1 24946U 97051C   18072.81969124  .00000077  00000-0  20774-4 0  9993",
    "2 24946  86.3936 173.9133 0010038  87.3628 272.8716 14.33594224 72655",
    "1 33772U 97051K   18072.79683295  .00006758  00000-0  80789-3 0  9992",
    "2 33772  86.4100 161.1852 0024359 235.6413 246.4187 14.83834582479181",
    "1 33773U 97051L   18072.81928343  .00000199  00000-0  58735-4 0  9992",
    "2 33773  86.4081 172.1791 0013748 106.9150 253.3557 14.38225248476269",
    "1 33775U 97051N   18072.82675394  .00000172  00000-0  53596-4 0  9991",
    "2 33775  86.3736 167.0559 0016851  81.4877  41.0967 14.34896063475073",
    "1 33776U 97051P   18072.88244383  .00000104  00000-0  30161-4 0  9996",
    "2 33776  86.4119 182.5536 0017063  87.9100  37.3201 14.33820651474935",
    "1 33777U 97051Q   18072.78576497  .00000707  00000-0  21257-3 0  9994",
    "2 33777  86.3904 163.1530 0008949 276.4491  83.5689 14.41336447476587",
    "1 33849U 97051S   18072.78507871  .00002654  00000-0  71400-3 0  9992",
    "2 33849  86.1012  87.1295 0063611 253.9295 105.4896 14.46496881472468",
    "1 33850U 97051T   18072.75474943  .00000091  00000-0  24507-4 0  9994",
    "2 33850  86.3487 156.6556 0014655  86.7090  28.1147 14.35563758474894",
    "1 33853U 97051W   18072.63418771  .00000163  00000-0  92440-4 0  9992",
    "2 33853  86.0051 136.7341 0242814 187.2506 298.4677 13.90147916459551",
    "1 33854U 97051X   18072.96392431  .00001609  00000-0  29754-3 0  9996",
    "2 33854  86.2245  72.3941 0007530 325.6051  91.8181 14.64773909480555",
    "1 33855U 97051Y   18072.86300254  .00009244  00000-0  19527-2 0  9997",
    "2 33855  86.3364 205.9902 0013484 315.7504  44.2626 14.59211576296156",
    "1 33858U 97051AB  18072.91604334  .00004946  00000-0  44078-3 0  9996",
    "2 33858  86.1328  18.2621 0020324  75.5347 349.1311 14.95642690483158",
    "1 33859U 97051AC  18072.76015279  .00000873  00000-0  26485-3 0  9991",
    "2 33859  86.3474 160.2228 0050620 101.1806 259.5089 14.40339968474463",
    "1 33860U 97051AD  18072.31650716  .00000542  00000-0  15112-3 0  9993",
    "2 33860  86.3976 162.1440 0016376  77.7189 349.4992 14.44425346477073",
    "1 33862U 97051AF  18072.80949809  .00000462  00000-0  12179-3 0  9994",
    "2 33862  86.4196 167.9596 0056690 198.7043 284.4674 14.45822267477711",
    "1 33864U 97051AH  18072.83753363  .00001192  00000-0  30520-3 0  9998",
    "2 33864  86.2761 115.1064 0004887 163.0687 249.9855 14.49618893477498",
    "1 33865U 97051AJ  18072.90575253  .00002283  00000-0  42779-3 0  9998",
    "2 33865  86.3485 133.5907 0035092 296.4948 122.1199 14.63998414478957",
    "1 33866U 97051AK  18072.81192417  .00000333  00000-0  15379-3 0  9996",
    "2 33866  86.3037 192.8419 0131418 125.5747 358.9380 14.13351597467370",
    "1 33867U 97051AL  18072.75107598  .00000814  00000-0  17957-3 0  9994",
    "2 33867  86.4208 153.5440 0031863  27.8863 332.4044 14.55829852479980",
    "1 33869U 97051AN  18072.79464578  .00001157  00000-0  35015-3 0  9990",
    "2 33869  86.3663 186.2009 0073283 198.6260 161.2255 14.39990547472369",
    "1 33870U 97051AP  18072.79001433  .00000394  00000-0  13104-3 0  9996",
    "2 33870  86.3856 174.1345 0025826 110.0594   7.6324 14.34989701474617",
    "1 33873U 97051AS  18072.73911135  .00000748  00000-0  16249-3 0  9998",
    "2 33873  86.3692 141.6176 0023162  18.8835 341.3227 14.56600459478509",
    "1 33874U 97051AT  18072.78658362  .00001361  00000-0  49062-3 0  9995",
    "2 33874  86.2937 163.0550 0076204 279.8894 205.6244 14.31430585471355",
    "1 33875U 97051AU  18072.94444625  .00001407  00000-0  23353-3 0  9995",
    "2 33875  86.4094 132.4547 0031062 218.8606 261.9492 14.69147050482585",
    "1 33876U 97051AV  18072.96759771  .00004563  00000-0  58179-3 0  9999",
    "2 33876  86.1969  61.7939 0008367 182.1509 229.2842 14.81275406481036",
    "1 33878U 97051AX  18072.73161682  .00003981  00000-0  11687-2 0  9999",
    "2 33878  86.3150 172.4321 0107463 233.0930 126.0386 14.40278429471655",
    "1 33879U 97051AY  18072.63144058  .00003671  00000-0  58923-3 0  9998",
    "2 33879  86.3611 125.1500 0025413 203.9383 156.0653 14.71191440229386",
    "1 33881U 97051BA  18072.84779021  .00000706  00000-0  28694-3 0  9996",
    "2 33881  86.3928 208.7855 0082910   4.6135 115.1857 14.24416436469850",
    "1 33884U 97051BD  18072.72229951  .00000333  00000-0  87217-4 0  9991",
    "2 33884  86.3857 155.7534 0014496 156.7558 322.1928 14.46259874477483",
    "1 33886U 97051BF  18072.86409670  .00000117  00000-0  35209-4 0  9990",
    "2 33886  86.3900 174.1289 0016521 114.9334  20.6922 14.33286941474847",
    "1 33887U 97051BG  18072.69063317  .00000096  00000-0  26719-4 0  9998",
    "2 33887  86.3067 139.3142 0008662 118.5748   4.4708 14.34956283475431",
    "1 33888U 97051BH  18072.71203567  .00001462  00000-0  44691-3 0  9991",
    "2 33888  86.3286 158.5270 0052149 133.4984 227.0569 14.40435442473798",
    "1 33950U 97051BK  18072.91305290  .00002205  00000-0  45268-3 0  9996",
    "2 33950  86.3860 151.0861 0014010 239.5236 120.4591 14.60204595478266",
    "1 33952U 97051BM  18072.62579880  .00001720  00000-0  38970-3 0  9997",
    "2 33952  86.3535 139.1468 0011719 346.4454  13.6437 14.55557086478442",
    "1 33953U 97051BN  18072.26281185  .00000551  00000-0  17353-3 0  9999",
    "2 33953  86.3984 174.7499 0025528  95.9368 293.7131 14.38447305474860",
    "1 33954U 97051BP  18072.54342656  .00002491  00000-0  54609-3 0  9992",
    "2 33954  86.3827 159.7101 0017068 216.9265 206.0812 14.57212400477202",
    "1 33955U 97051BQ  18072.75350092  .00003953  00000-0  71533-3 0  9998",
    "2 33955  86.3608 155.4233 0036607 331.4110  28.5095 14.65703272476975",
    "1 33956U 97051BR  18072.77011307  .00003905  00000-0  60719-3 0  9995",
    "2 33956  86.4189 164.7027 0035559 101.2589  21.7366 14.72365817229006",
    "1 33959U 97051BU  18072.86018602  .00001143  00000-0  40045-3 0  9995",
    "2 33959  86.3625 187.2920 0069797 243.3333 116.0703 14.32956955471277",
    "1 33960U 97051BV  18072.86025640  .00000231  00000-0  58511-4 0  9992",
    "2 33960  86.2736 114.3156 0002298 280.8383 205.2519 14.46589952477419",
    "1 33961U 97051BW  18072.91089769  .00002590  00000-0  49038-3 0  9994",
    "2 33961  86.2686 105.3221 0018055 303.2488  56.6993 14.63888289478768",
    "1 33962U 97051BX  18072.86079194  .00001715  00000-0  34221-3 0  9996",
    "2 33962  86.3538 136.5698 0012970 325.2030  34.8332 14.61367206478828",
    "1 33964U 97051BZ  18072.75777837  .00091811  00000-0  19852-2 0  9993",
    "2 33964  86.3008  78.9473 0008920 122.9190 237.2925 15.44110578485680",
    "1 33965U 97051CA  18072.68870602  .00001038  00000-0  25976-3 0  9997",
    "2 33965  86.3737 151.3631 0006456 341.9896  18.1079 14.50576865477341",
    "1 33966U 97051CB  18072.77244267  .00000358  00000-0  10633-3 0  9998",
    "2 33966  86.4013 166.3029 0007869 195.9537 289.5591 14.40525872476483",
    "1 33967U 97051CC  18072.74854338  .00001669  00000-0  32680-3 0  9994",
    "2 33967  86.3823 148.6900 0041226 266.6988  92.9506 14.61706561478960",
    "1 34071U 97051CE  18072.76376940  .00000348  00000-0  10575-3 0  9993",
    "2 34071  86.3525 151.8658 0010363  96.4309 263.8070 14.39312426475416",
    "1 34076U 97051CK  18072.82874052  .00003818  00000-0  46580-3 0  9992",
    "2 34076  86.3307  94.3807 0037337 160.9418 253.5711 14.82574997482994",
    "1 34077U 97051CL  18072.82157785  .00000474  00000-0  14609-3 0  9992",
    "2 34077  86.4005 176.3838 0019652  62.4052  55.3197 14.39242610474494",
    "1 34079U 97051CN  18072.69603226  .00000804  00000-0  20911-3 0  9995",
    "2 34079  86.3951 156.4675 0012691 143.8515 346.5226 14.48399891477964",
    "1 34081U 97051CQ  18072.74383278  .00008597  00000-0  55248-3 0  9994",
    "2 34081  86.3135  72.6630 0022956 123.8870   2.2491 15.08066176485219",
    "1 34082U 97051CR  18072.81733182  .00002884  00000-0  72069-3 0  9999",
    "2 34082  86.3687 207.6769 0132568  12.4240 348.0176 14.46002913469987",
    "1 34086U 97051CV  18072.29605644  .00000968  00000-0  28561-3 0  9995",
    "2 34086  86.3907 176.6354 0025483  89.0588 323.7709 14.42420983474663",
    "1 34088U 97051CX  18072.84610123  .00000820  00000-0  23153-3 0  9995",
    "2 34088  86.4082 170.1317 0011267  51.2526  88.2290 14.44519176476267",
    "1 34090U 97051CZ  18072.90700958  .00004245  00000-0  48145-3 0  9994",
    "2 34090  86.4159 130.3244 0018708 193.2102 166.8635 14.85995960482847",
    "1 34091U 97051DA  18072.84613083  .00000881  00000-0  32621-3 0  9994",
    "2 34091  86.3746 191.5230 0063148 266.3293 224.2052 14.30215515471519",
    "1 34093U 97051DC  18072.49071737  .00005653  00000-0  44354-3 0  9999",
    "2 34093  86.2917  63.7713 0019326  38.3126  91.1105 15.00605945485655",
    "1 34095U 97051DE  18072.76634953  .00001730  00000-0  38437-3 0  9993",
    "2 34095  86.3870 163.4334 0047013   9.1195 351.0856 14.55787402476153",
    "1 34097U 97051DG  18072.69388986  .00000791  00000-0  34929-3 0  9997",
    "2 34097  86.2076 145.7312 0100549  54.3070 306.7424 14.19331313469144",
    "1 34098U 97051DH  18072.94085565  .00003174  00000-0  45982-3 0  9992",
    "2 34098  86.1357  32.0532 0015804 218.5862 201.9543 14.75711326481038",
    "1 34099U 97051DJ  18072.70253132  .00002128  00000-0  44900-3 0  9991",
    "2 34099  86.3679 146.8112 0011380 246.6840 237.6014 14.58949473478053",
    "1 34101U 97051DL  18072.87774806  .00002571  00000-0  82825-3 0  9999",
    "2 34101  86.3795 208.9639 0111619   1.0973 359.0446 14.35414770469371",
    "1 34102U 97051DM  18072.91555701  .00001019  00000-0  40251-3 0  9999",
    "2 34102  86.3803 220.9752 0115414  86.0471  32.0298 14.24455134467777"